NORAD_CAT_ID,OBJECT_NAME,OBJECT_TYPE,EPOCH,MEAN_MOTION,ECCENTRICITY,INCLINATION,RA_OF_ASC_NODE,ARG_OF_PERICENTER,MEAN_ANOMALY,BSTAR,MEAN_MOTION_DOT,MEAN_MOTION_DDOT,TLE_LINE0,TLE_LINE1,TLE_LINE2,SEMIMAJOR_AXIS,PERIOD,APOGEE,PERIGEE,DECAYED
53397.0,STARLINK-4515,PAYLOAD,2022-08-15 18:00:00,15.85289463,0.0018387999999999,53.2175,220.768,51.8399,8.033,-0.0052921999999999,-0.01153386,0.0,0 STARLINK-4515,1 53397U 22097K   22227.75001157 -.01153386  00000-0 -52922-2 0  9999,2 53397  53.2175 220.7680 0018388  51.8399   8.0330 15.85289463  1309,6693.647,90.835,327.82,303.204,0.0
53397.0,STARLINK-4515,PAYLOAD,2022-08-16 06:00:02,15.83996046,0.0013032999999999,53.2175,218.2527,48.1431,345.8197,-0.0057491999999999,-0.01163851,0.0,0 STARLINK-4515,1 53397U 22097K   22228.25002315 -.01163851  00000-0 -57492-2 0  9997,2 53397  53.2175 218.2527 0013033  48.1431 345.8197 15.83996046  1379,6697.29,90.909,327.884,310.427,0.0
53397.0,STARLINK-4515,PAYLOAD,2022-08-16 14:00:01,15.83129366,0.0009887,53.2173,216.5772,45.5601,89.7181,-0.0060187,-0.0118532999999999,0.0,0 STARLINK-4515,1 53397U 22097K   22228.58334491 -.01185330  00000-0 -60187-2 0  9997,2 53397  53.2173 216.5772 0009887  45.5601  89.7181 15.83129366  1305,6699.734,90.959,328.223,314.975,0.0
53397.0,STARLINK-4515,PAYLOAD,2022-08-16 22:00:00,15.82285525,0.0007072,53.2173,214.9028,41.6723,193.9366,-0.0065161,-0.01224295,0.0,0 STARLINK-4515,1 53397U 22097K   22228.91667824 -.01224295  00000-0 -65161-2 0  9994,2 53397  53.2173 214.9028 0007072  41.6723 193.9366 15.82285525  1488,6702.116,91.008,328.721,319.241,0.0
53397.0,STARLINK-4515,PAYLOAD,2022-08-17 14:00:01,15.80531521,0.0003857,53.2173,211.5649,7.2121,65.9501,-0.0068838,-0.0119201,0.0,0 STARLINK-4515,1 53397U 22097K   22229.58334491 -.01192010  00000-0 -68838-2 0  9992,2 53397  53.2173 211.5649 0003857   7.2121  65.9501 15.80531521  1305,6707.074000000001,91.109,331.525,326.3520000000001,0.0
53397.0,STARLINK-4515,PAYLOAD,2022-08-18 08:00:01,15.78604408,0.0003286,53.2183,207.8193,344.1052,36.2974,-0.0077566,-0.01224502,0.0,0 STARLINK-4515,1 53397U 22097K   22230.33334491 -.01224502  00000-0 -77566-2 0  9997,2 53397  53.2183 207.8193 0003286 344.1052  36.2974 15.78604408  1701,6712.531,91.22,336.602,332.19,0.0
53397.0,STARLINK-4515,PAYLOAD,2022-08-18 14:00:01,15.77984099,0.0003443,53.2175,206.5718,326.0935,35.5403,-0.0082741,-0.01264615,0.0,0 STARLINK-4515,1 53397U 22097K   22230.58334491 -.01264615  00000-0 -82741-2 0  9994,2 53397  53.2175 206.5718 0003443 326.0935  35.5403 15.77984099  1306,6714.29,91.256,338.467,333.843,0.0
53397.0,STARLINK-4515,PAYLOAD,2022-08-18 22:00:00,15.77062961,0.0003625,53.2175,204.9103,0.0798,95.6601,-0.0080867,-0.01194594,0.0,0 STARLINK-4515,1 53397U 22097K   22230.91667824 -.01194594  00000-0 -80867-2 0  9995,2 53397  53.2175 204.9103 0003625   0.0798  95.6601 15.77062961  1306,6716.904,91.309,341.204,336.334,0.0
53397.0,STARLINK-4515,PAYLOAD,2022-08-19 06:00:00,15.76196072,0.0003768999999999,53.2173,203.2546,5.0126,183.7627,-0.008417,-0.01196027,0.0,0 STARLINK-4515,1 53397U 22097K   22231.25001157 -.01196027  00000-0 -84170-2 0  9998,2 53397  53.2173 203.2546 0003769   5.0126 183.7627 15.76196072  1853,6719.3669999999975,91.359,343.764,338.699,0.0
53397.0,STARLINK-4515,PAYLOAD,2022-08-19 14:00:01,15.75326855,8.09e-05,53.2174,201.5977,66.2357,214.5355,-0.0087366,-0.01192992,0.0,0 STARLINK-4515,1 53397U 22097K   22231.58334491 -.01192992  00000-0 -87366-2 0  9991,2 53397  53.2174 201.5977 0000809  66.2357 214.5355 15.75326855  1304,6721.8380000000025,91.41,344.247,343.159,0.0
53397.0,STARLINK-4515,PAYLOAD,2022-08-19 22:00:00,15.74414028,0.0001020999999999,53.2177,199.943,72.0327,299.699,-0.0082864999999999,-0.01098124,0.0,0 STARLINK-4515,1 53397U 22097K   22231.91667824 -.01098124  00000-0 -82865-2 0  9998,2 53397  53.2177 199.9430 0001021  72.0327 299.6990 15.74414028  1308,6724.436,91.463,346.98800000000006,345.615,0.0
53397.0,STARLINK-4515,PAYLOAD,2022-08-20 08:00:01,15.73335701,0.0001189999999999,53.2176,197.8812,60.3179,153.6545,-0.0014589,-0.002017,0.0,0 STARLINK-4515,1 53397U 22097K   22232.33334491 -.00201700  00000-0 -14589-2 0  9999,2 53397  53.2176 197.8812 0001190  60.3179 153.6545 15.73335701  2024,6727.5080000000025,91.525,350.1740000000001,348.5730000000001,0.0
53397.0,STARLINK-4515,PAYLOAD,2022-08-20 14:00:01,15.73206461,0.00011,53.2174,196.6424,77.2155,113.5243,-3.3472e-05,-5.315e-05,0.0,0 STARLINK-4515,1 53397U 22097K   22232.58334491 -.00005315  00000-0 -33472-4 0  9994,2 53397  53.2174 196.6424 0001100  77.2155 113.5243 15.73206461  1300,6727.877,91.533,350.482,349.00199999999984,0.0
53397.0,STARLINK-4515,PAYLOAD,2022-08-20 22:00:00,15.73303183,0.0001114,53.2186,194.9929,86.2701,193.4366,-0.0012862,-0.0017814,0.0,0 STARLINK-4515,1 53397U 22097K   22232.91667824 -.00178140  00000-0 -12862-2 0  9995,2 53397  53.2186 194.9929 0001114  86.2701 193.4366 15.73303183  2118,6727.601,91.527,350.215,348.717,0.0
53397.0,STARLINK-4515,PAYLOAD,2022-08-21 06:00:00,15.73235638,0.0001139,53.2197,193.3474,69.3028,299.3744,-0.00085793,-0.00119508,0.0,0 STARLINK-4515,1 53397U 22097K   22233.25001157 -.00119508  00000-0 -85793-3 0  9991,2 53397  53.2197 193.3474 0001139  69.3028 299.3744 15.73235638  2169,6727.794,91.531,350.425,348.892,0.0
53397.0,STARLINK-4515,PAYLOAD,2022-08-21 14:00:01,15.73154899,9.6e-05,53.2199,191.6966,73.70100000000002,23.9137,-3.5061e-05,-5.526e-05,0.0,0 STARLINK-4515,1 53397U 22097K   22233.58334491 -.00005526  00000-0 -35061-4 0  9995,2 53397  53.2199 191.6966 0000960  73.7010  23.9137 15.73154899  2222,6728.024,91.536,350.535,349.24300000000005,0.0
53397.0,STARLINK-4515,PAYLOAD,2022-08-21 22:00:00,15.73156826,0.0001025,53.2202,190.0467,81.6733,104.7922,0.0003121,0.00043326,0.0,0 STARLINK-4515,1 53397U 22097K   22233.91667824  .00043326  00000-0  31210-3 0  9990,2 53397  53.2202 190.0467 0001025  81.6733 104.7922 15.73156826  1309,6728.018,91.536,350.5730000000001,349.194,0.0
53397.0,STARLINK-4515,PAYLOAD,2022-08-22 06:00:00,15.73167541,0.0001132,53.22,188.3995,66.8348,208.5259,0.00046146,0.00064551,0.0,0 STARLINK-4515,1 53397U 22097K   22234.25001157  .00064551  00000-0  46146-3 0  9996,2 53397  53.2200 188.3995 0001132  66.8348 208.5259 15.73167541  2324,6727.988,91.535,350.61400000000015,349.091,0.0
53397.0,STARLINK-4515,PAYLOAD,2022-08-22 12:00:00,15.73217478,0.0001029,53.2195,187.1615,70.0087,182.0216,-4.5037e-06,-1.252e-05,0.0,0 STARLINK-4515,1 53397U 22097K   22234.50001157 -.00001252  00000-0 -45037-5 0  9995,2 53397  53.2195 187.1615 0001029  70.0087 182.0216 15.73217478  1306,6727.845,91.532,350.403,349.01800000000014,0.0
53397.0,STARLINK-4515,PAYLOAD,2022-08-22 22:00:00,15.73252156,0.0001085,53.2199,185.099,84.4319,8.7787,6.5262e-05,8.569e-05,0.0,0 STARLINK-4515,1 53397U 22097K   22234.91667824  .00008569  00000-0  65262-4 0  9996,2 53397  53.2199 185.0990 0001085  84.4319   8.7787 15.73252156  2436,6727.746,91.53,350.341,348.88199999999995,0.0
53397.0,STARLINK-4515,PAYLOAD,2022-08-23 06:00:00,15.73207209,0.0001204,53.2201,183.4515,69.9597,112.2411,0.00010612,0.00014303,0.0,0 STARLINK-4515,1 53397U 22097K   22235.25001157  .00014303  00000-0  10612-3 0  9996,2 53397  53.2201 183.4515 0001204  69.9597 112.2411 15.73207209  2483,6727.875,91.533,350.55,348.93,0.0
53397.0,STARLINK-4515,PAYLOAD,2022-08-23 14:00:01,15.73243181,0.0001097999999999,53.2203,181.8005,79.2027,191.9325,-0.00065995,-0.00092396,0.0,0 STARLINK-4515,1 53397U 22097K   22235.58334491 -.00092396  00000-0 -65995-3 0  9996,2 53397  53.2203 181.8005 0001098  79.2027 191.9325 15.73243181  1301,6727.772,91.531,350.376,348.898,0.0
53397.0,STARLINK-4515,PAYLOAD,2022-08-23 20:00:01,15.731756099999998,0.000102,53.2205,180.5626,83.7275,164.1196,0.00028354,0.00039317,0.0,0 STARLINK-4515,1 53397U 22097K   22235.83334491  .00039317  00000-0  28354-3 0  9994,2 53397  53.2205 180.5626 0001020  83.7275 164.1196 15.73175610  2577,6727.965,91.535,350.516,349.14300000000014,0.0
53397.0,STARLINK-4515,PAYLOAD,2022-08-23 22:00:01,15.73191182,0.0001044999999999,53.2207,180.1508,81.642,278.4944,0.00011341,0.00015319,0.0,0 STARLINK-4515,1 53397U 22097K   22235.91668981  .00015319  00000-0  11341-3 0  9991,2 53397  53.2207 180.1508 0001045  81.6420 278.4944 15.73191182  1313,6727.92,91.534,350.48800000000006,349.082,0.0
53397.0,STARLINK-4515,PAYLOAD,2022-08-24 06:00:00,15.73170403,0.000111,53.2206,178.5035,68.2146,20.7753,0.00046218,0.00064661,0.0,0 STARLINK-4515,1 53397U 22097K   22236.25001157  .00064661  00000-0  46218-3 0  9990,2 53397  53.2206 178.5035 0001110  68.2146  20.7753 15.73170403  2643,6727.98,91.535,350.591,349.098,0.0
53397.0,STARLINK-4515,PAYLOAD,2022-08-24 14:00:01,15.73215841,9.89e-05,53.2205,176.8524,77.6725,100.2439,0.00013278,0.00018067,0.0,0 STARLINK-4515,1 53397U 22097K   22236.58334491  .00018067  00000-0  13278-3 0  9995,2 53397  53.2205 176.8524 0000989  77.6725 100.2439 15.73215841  1309,6727.85,91.532,350.38,349.05,0.0
53397.0,STARLINK-4515,PAYLOAD,2022-08-24 22:00:00,15.73273369,9.21e-05,53.2201,175.2033,85.5348,181.3275,-0.00034558,-0.00048988,0.0,0 STARLINK-4515,1 53397U 22097K   22236.91667824 -.00048988  00000-0 -34558-3 0  9992,2 53397  53.2201 175.2033 0000921  85.5348 181.3275 15.73273369  1305,6727.686,91.529,350.171,348.931,0.0
53397.0,STARLINK-4515,PAYLOAD,2022-08-25 14:00:01,15.73220356,7.64e-05,53.2193,171.9044,76.9507,7.8502,3.5874e-05,4.422e-05,0.0,0 STARLINK-4515,1 53397U 22097K   22237.58334491  .00004422  00000-0  35874-4 0  9993,2 53397  53.2193 171.9044 0000764  76.9507   7.8502 15.73220356  1309,6727.837,91.532,350.216,349.18800000000016,0.0
53397.0,STARLINK-4515,PAYLOAD,2022-08-25 22:00:00,15.73231633,9.76e-05,53.2197,170.255,80.8469,92.9124,-0.00031459,-0.00044595,0.0,0 STARLINK-4515,1 53397U 22097K   22237.91667824 -.00044595  00000-0 -31459-3 0  9990,2 53397  53.2197 170.2550 0000976  80.8469  92.9124 15.73231633  2905,6727.805,91.531,350.327,349.01300000000015,0.0
